{"type": "FeatureCollection", "features": [ {"type": "Feature", "properties": {"norad_id": 31258, "name": "FENGYUN 1C DEB", "group": "fengyun-1c-debris", "lat": -33.634270421099046, "lon": 131.32837147005546, "alt_km": 545.5317057533484, "timestamp": "2025-12-03T20:47:58.505405+00:00", "meta": {"OBJECT_NAME": "FENGYUN 1C DEB", "OBJECT_ID": "1999-025BMQ", "EPOCH": "2025-12-03T08:20:25.022112", "MEAN_MOTION": 15.08271995, "ECCENTRICITY": 0.0004715, "INCLINATION": 98.8532, "RA_OF_ASC_NODE": 124.7789, "ARG_OF_PERICENTER": 266.4838, "MEAN_ANOMALY": 122.221, "EPHEMERIS_TYPE": 0, "CLASSIFICATION_TYPE": "U", "NORAD_CAT_ID": 31258, "ELEMENT_SET_NO": 999, "REV_AT_EPOCH": 96969, "BSTAR": 0.011372, "MEAN_MOTION_DOT": 0.00180633, "MEAN_MOTION_DDOT": 0}, "tle": {"line1": "1 31258U 99025BMQ 25337.34751183  .00180633  00000+0  11372-1 0  9991", "line2": "2 31258  98.8532 124.7789 0004715 266.4838 122.2210 15.08271995969694"}}, "geometry": {"type": "Point", "coordinates": [131.32837147005546, -33.634270421099046]}}, {"type": "Feature", "properties": {"norad_id": 31259, "name": "FENGYUN 1C DEB", "group": "fengyun-1c-debris", "lat": 42.64594640722088, "lon": 48.57442977096646, "alt_km": 886.1828830929799, "timestamp": "2025-12-03T20:47:58.505415+00:00", "meta": {"OBJECT_NAME": "FENGYUN 1C DEB", "OBJECT_ID": "1999-025BMR", "EPOCH": "2025-12-03T03:46:02.117280", "MEAN_MOTION": 14.14917036, "ECCENTRICITY": 0.00654261, "INCLINATION": 99.0107, "RA_OF_ASC_NODE": 56.2617, "ARG_OF_PERICENTER": 222.333, "MEAN_ANOMALY": 168.1959, "EPHEMERIS_TYPE": 0, "CLASSIFICATION_TYPE": "U", "NORAD_CAT_ID": 31259, "ELEMENT_SET_NO": 999, "REV_AT_EPOCH": 95434, "BSTAR": 0.0025553741, "MEAN_MOTION_DOT": 4.998e-05, "MEAN_MOTION_DDOT": 0}, "tle": {"line1": "1 31259U 99025BMR 25337.15696895  .00004998  00000+0  25554-2 0  9996", "line2": "2 31259  99.0107  56.2617 0065426 222.3330 168.1959 14.14917036954343"}}, "geometry": {"type": "Point", "coordinates": [48.57442977096646, 42.64594640722088]}}, {"type": "Feature", "properties": {"norad_id": 31260, "name": "FENGYUN 1C DEB", "group": "fengyun-1c-debris", "lat": 15.508031386834526, "lon": 56.96395510169655, "alt_km": 802.2439654283953, "timestamp": "2025-12-03T20:47:58.505426+00:00", "meta": {"OBJECT_NAME": "FENGYUN 1C DEB", "OBJECT_ID": "1999-025BMS", "EPOCH": "2025-12-02T04:37:21.641376", "MEAN_MOTION": 14.36316169, "ECCENTRICITY": 0.0047867, "INCLINATION": 98.9566, "RA_OF_ASC_NODE": 232.7164, "ARG_OF_PERICENTER": 323.6841, "MEAN_ANOMALY": 189.6044, "EPHEMERIS_TYPE": 0, "CLASSIFICATION_TYPE": "U", "NORAD_CAT_ID": 31260, "ELEMENT_SET_NO": 999, "REV_AT_EPOCH": 97042, "BSTAR": 0.0012493357, "MEAN_MOTION_DOT": 3.655e-05, "MEAN_MOTION_DDOT": 0}, "tle": {"line1": "1 31260U 99025BMS 25336.19261159  .00003655  00000+0  12493-2 0  9999", "line2": "2 31260  98.9566 232.7164 0047867 323.6841 189.6044 14.36316169970425"}}, "geometry": {"type": "Point", "coordinates": [56.96395510169655, 15.508031386834526]}}, {"type": "Feature", "properties": {"norad_id": 31261, "name": "FENGYUN 1C DEB", "group": "fengyun-1c-debris", "lat": 62.16722745804261, "lon": -86.68366585903192, "alt_km": 786.8809438100834, "timestamp": "2025-12-03T20:47:58.505436+00:00", "meta": {"OBJECT_NAME": "FENGYUN 1C DEB", "OBJECT_ID": "1999-025BMT", "EPOCH": "2025-12-02T16:09:13.184064", "MEAN_MOTION": 14.39970685, "ECCENTRICITY": 0.00502488, "INCLINATION": 99.0133, "RA_OF_ASC_NODE": 289.5565, "ARG_OF_PERICENTER": 263.3863, "MEAN_ANOMALY": 96.1602, "EPHEMERIS_TYPE": 0, "CLASSIFICATION_TYPE": "U", "NORAD_CAT_ID": 31261, "ELEMENT_SET_NO": 999, "REV_AT_EPOCH": 97205, "BSTAR": 0.0014582832, "MEAN_MOTION_DOT": 4.613e-05, "MEAN_MOTION_DDOT": 0}, "tle": {"line1": "1 31261U 99025BMT 25336.67306926  .00004613  00000+0  14583-2 0  9992", "line2": "2 31261  99.0133 289.5565 0050248 263.3863  96.1602 14.39970685972059"}}, "geometry": {"type": "Point", "coordinates": [-86.68366585903192, 62.16722745804261]}}, {"type": "Feature", "properties": {"norad_id": 31262, "name": "FENGYUN 1C DEB", "group": "fengyun-1c-debris", "lat": 58.83971723123151, "lon": 45.99878810914679, "alt_km": 807.4167447584623, "timestamp": "2025-12-03T20:47:58.505446+00:00", "meta": {"OBJECT_NAME": "FENGYUN 1C DEB", "OBJECT_ID": "1999-025BMU", "EPOCH": "2025-12-03T05:34:11.318016", "MEAN_MOTION": 14.18072466, "ECCENTRICITY": 0.0056295, "INCLINATION": 99.0035, "RA_OF_ASC_NODE": 60.5563, "ARG_OF_PERICENTER": 124.7491, "MEAN_ANOMALY": 298.1815, "EPHEMERIS_TYPE": 0, "CLASSIFICATION_TYPE": "U", "NORAD_CAT_ID": 31262, "ELEMENT_SET_NO": 999, "REV_AT_EPOCH": 95574, "BSTAR": 0.002563, "MEAN_MOTION_DOT": 5.297e-05, "MEAN_MOTION_DDOT": 0}, "tle": {"line1": "1 31262U 99025BMU 25337.23207544  .00005297  00000+0  25630-2 0  9996", "line2": "2 31262  99.0035  60.5563 0056295 124.7491 298.1815 14.18072466955745"}}, "geometry": {"type": "Point", "coordinates": [45.99878810914679, 58.83971723123151]}}, {"type": "Feature", "properties": {"norad_id": 31263, "name": "FENGYUN 1C DEB", "group": "fengyun-1c-debris", "lat": 43.975221089564805, "lon": -108.81239081157953, "alt_km": 454.2369059652774, "timestamp": "2025-12-03T20:47:58.505456+00:00", "meta": {"OBJECT_NAME": "FENGYUN 1C DEB", "OBJECT_ID": "1999-025BMV", "EPOCH": "2025-12-02T05:28:06.379104", "MEAN_MOTION": 15.33155471, "ECCENTRICITY": 0.0015568, "INCLINATION": 98.996, "RA_OF_ASC_NODE": 257.9864, "ARG_OF_PERICENTER": 121.7691, "MEAN_ANOMALY": 238.5066, "EPHEMERIS_TYPE": 0, "CLASSIFICATION_TYPE": "U", "NORAD_CAT_ID": 31263, "ELEMENT_SET_NO": 999, "REV_AT_EPOCH": 97004, "BSTAR": 0.016206, "MEAN_MOTION_DOT": 0.00559994, "MEAN_MOTION_DDOT": 0}, "tle": {"line1": "1 31263U 99025BMV 25336.22785161  .00559994  00000+0  16206-1 0  9997", "line2": "2 31263  98.9960 257.9864 0015568 121.7691 238.5066 15.33155471970046"}}, "geometry": {"type": "Point", "coordinates": [-108.81239081157953, 43.975221089564805]}}, {"type": "Feature", "properties": {"norad_id": 31264, "name": "FENGYUN 1C DEB", "group": "fengyun-1c-debris", "lat": 19.046070866581875, "lon": -128.56961495706022, "alt_km": 829.3924972933337, "timestamp": "2025-12-03T20:47:58.505466+00:00", "meta": {"OBJECT_NAME": "FENGYUN 1C DEB", "OBJECT_ID": "1999-025BMW", "EPOCH": "2025-12-02T11:42:10.884672", "MEAN_MOTION": 14.1855128, "ECCENTRICITY": 0.00013742, "INCLINATION": 99.1144, "RA_OF_ASC_NODE": 233.1912, "ARG_OF_PERICENTER": 15.7646, "MEAN_ANOMALY": 165.1682, "EPHEMERIS_TYPE": 0, "CLASSIFICATION_TYPE": "U", "NORAD_CAT_ID": 31264, "ELEMENT_SET_NO": 999, "REV_AT_EPOCH": 96283, "BSTAR": 0.00076770164, "MEAN_MOTION_DOT": 1.542e-05, "MEAN_MOTION_DDOT": 0}, "tle": {"line1": "1 31264U 99025BMW 25336.48762598  .00001542  00000+0  76770-3 0  9990", "line2": "2 31264  99.1144 233.1912 0001374  15.7646 165.1682 14.18551280962833"}}, "geometry": {"type": "Point", "coordinates": [-128.56961495706022, 19.046070866581875]}}, {"type": "Feature", "properties": {"norad_id": 31266, "name": "FENGYUN 1C DEB", "group": "fengyun-1c-debris", "lat": -67.0071636998342, "lon": -16.941865554653265, "alt_km": 735.9203859102327, "timestamp": "2025-12-03T20:47:58.505477+00:00", "meta": {"OBJECT_NAME": "FENGYUN 1C DEB", "OBJECT_ID": "1999-025BMY", "EPOCH": "2025-12-03T05:59:43.613376", "MEAN_MOTION": 14.2230717, "ECCENTRICITY": 0.0129947, "INCLINATION": 99.256, "RA_OF_ASC_NODE": 319.81, "ARG_OF_PERICENTER": 311.3886, "MEAN_ANOMALY": 63.6117, "EPHEMERIS_TYPE": 0, "CLASSIFICATION_TYPE": "U", "NORAD_CAT_ID": 31266, "ELEMENT_SET_NO": 999, "REV_AT_EPOCH": 97071, "BSTAR": 0.0005268, "MEAN_MOTION_DOT": 1.227e-05, "MEAN_MOTION_DDOT": 0}, "tle": {"line1": "1 31266U 99025BMY 25337.24981034  .00001227  00000+0  52680-3 0  9999", "line2": "2 31266  99.2560 319.8100 0129947 311.3886  63.6117 14.22307170970710"}}, "geometry": {"type": "Point", "coordinates": [-16.941865554653265, -67.0071636998342]}}, {"type": "Feature", "properties": {"norad_id": 31268, "name": "FENGYUN 1C DEB", "group": "fengyun-1c-debris", "lat": -44.06729154111906, "lon": -168.21771836821407, "alt_km": 844.1410455027317, "timestamp": "2025-12-03T20:47:58.505487+00:00", "meta": {"OBJECT_NAME": "FENGYUN 1C DEB", "OBJECT_ID": "1999-025BNA", "EPOCH": "2025-11-30T20:01:13.105344", "MEAN_MOTION": 14.06369123, "ECCENTRICITY": 0.00492969, "INCLINATION": 98.7575, "RA_OF_ASC_NODE": 17.4295, "ARG_OF_PERICENTER": 216.6529, "MEAN_ANOMALY": 143.1264, "EPHEMERIS_TYPE": 0, "CLASSIFICATION_TYPE": "U", "NORAD_CAT_ID": 31268, "ELEMENT_SET_NO": 999, "REV_AT_EPOCH": 61865, "BSTAR": 0.00085236082, "MEAN_MOTION_DOT": 1.38e-05, "MEAN_MOTION_DDOT": 0}, "tle": {"line1": "1 31268U 99025BNA 25334.83417946  .00001380  00000+0  85236-3 0  9992", "line2": "2 31268  98.7575  17.4295 0049296 216.6529 143.1264 14.06369123618654"}}, "geometry": {"type": "Point", "coordinates": [-168.21771836821407, -44.06729154111906]}}, {"type": "Feature", "properties": {"norad_id": 31269, "name": "FENGYUN 1C DEB", "group": "fengyun-1c-debris", "lat": -46.75573324342054, "lon": 27.472880702954313, "alt_km": 706.5634982454112, "timestamp": "2025-12-03T20:47:58.505497+00:00", "meta": {"OBJECT_NAME": "FENGYUN 1C DEB", "OBJECT_ID": "1999-025BNB", "EPOCH": "2025-12-03T05:21:48.651264", "MEAN_MOTION": 14.43359307, "ECCENTRICITY": 0.0241889, "INCLINATION": 98.1813, "RA_OF_ASC_NODE": 215.6529, "ARG_OF_PERICENTER": 304.5693, "MEAN_ANOMALY": 185.362, "EPHEMERIS_TYPE": 0, "CLASSIFICATION_TYPE": "U", "NORAD_CAT_ID": 31269, "ELEMENT_SET_NO": 999, "REV_AT_EPOCH": 96349, "BSTAR": 0.0032129, "MEAN_MOTION_DOT": 0.00015446, "MEAN_MOTION_DDOT": 0}, "tle": {"line1": "1 31269U 99025BNB 25337.22347976  .00015446  00000+0  32129-2 0  9994", "line2": "2 31269  98.1813 215.6529 0241889 304.5693 185.3620 14.43359307963490"}}, "geometry": {"type": "Point", "coordinates": [27.472880702954313, -46.75573324342054]}}]}